{
    "links": {
        "self": "http://www.neowsapp.com/rest/v1/neo/54013544?api_key=iIulBulltgU6a56xZRHN4H3l9WmuAYTsLGpBGhQ2"
    },
    "id": "54013544",
    "neo_reference_id": "54013544",
    "name": "(2020 EK)",
    "designation": "2020 EK",
    "nasa_jpl_url": "http://ssd.jpl.nasa.gov/sbdb.cgi?sstr=54013544",
    "absolute_magnitude_h": 24.923,
    "estimated_diameter": {
        "kilometers": {
            "estimated_diameter_min": 0.0275394319,
            "estimated_diameter_max": 0.0615800417
        },
        "meters": {
            "estimated_diameter_min": 27.5394318671,
            "estimated_diameter_max": 61.5800417166
        },
        "miles": {
            "estimated_diameter_min": 0.0171122043,
            "estimated_diameter_max": 0.0382640521
        },
        "feet": {
            "estimated_diameter_min": 90.352469647,
            "estimated_diameter_max": 202.0342640656
        }
    },
    "is_potentially_hazardous_asteroid": false,
    "close_approach_data": [
        {
            "close_approach_date": "2020-03-12",
            "close_approach_date_full": "2020-Mar-12 01:36",
            "epoch_date_close_approach": 1583976960000,
            "relative_velocity": {
                "kilometers_per_second": "20.2858275795",
                "kilometers_per_hour": "73028.9792860798",
                "miles_per_hour": "45377.3677125088"
            },
            "miss_distance": {
                "astronomical": "0.0577059357",
                "lunar": "22.4476089873",
                "kilometers": "8632685.067076959",
                "miles": "5364101.7639776742"
            },
            "orbiting_body": "Earth"
        },
        {
            "close_approach_date": "2021-11-06",
            "close_approach_date_full": "2021-Nov-06 18:10",
            "epoch_date_close_approach": 1636222200000,
            "relative_velocity": {
                "kilometers_per_second": "26.7974836604",
                "kilometers_per_hour": "96470.9411773842",
                "miles_per_hour": "59943.2911999141"
            },
            "miss_distance": {
                "astronomical": "0.1418683101",
                "lunar": "55.1867726289",
                "kilometers": "21223197.011459487",
                "miles": "13187483.1112034406"
            },
            "orbiting_body": "Venus"
        }
    ],
    "orbital_data": {
        "orbit_id": "1",
        "orbit_determination_date": "2020-03-07 06:12:29",
        "first_observation_date": "2020-03-05",
        "last_observation_date": "2020-03-07",
        "data_arc_in_days": 2,
        "observations_used": 18,
        "orbit_uncertainty": "9",
        "minimum_orbit_intersection": ".0557421",
        "jupiter_tisserand_invariant": "4.889",
        "epoch_osculation": "2458914.5",
        "eccentricity": ".5879427605942618",
        "semi_major_axis": "1.266846222167577",
        "inclination": "11.65286652672132",
        "ascending_node_longitude": "157.0575249247832",
        "orbital_period": "520.8159521855815",
        "perihelion_distance": ".5220131570579604",
        "perihelion_argument": "123.041692104674",
        "aphelion_distance": "2.011679287277194",
        "perihelion_time": "2458975.318014399306",
        "mean_anomaly": "317.9611855361363",
        "mean_motion": ".6912230673605054",
        "equinox": "J2000",
        "orbit_class": {
            "orbit_class_type": "APO",
            "orbit_class_description": "Near-Earth asteroid orbits which cross the Earth’s orbit similar to that of 1862 Apollo",
            "orbit_class_range": "a (semi-major axis) > 1.0 AU; q (perihelion) < 1.017 AU"
        }
    },
    "is_sentry_object": false
}